{"type": "FeatureCollection", "features": [ {"type": "Feature", "properties": {"norad_id": 67040, "name": "STARLINK-35786", "group": "last-30-days", "lat": 41.49407234577154, "lon": -179.37260594850628, "alt_km": 343.95965909811275, "timestamp": "2025-12-24T16:52:40.181868+00:00", "meta": {"OBJECT_NAME": "STARLINK-35786", "OBJECT_ID": "2025-294L", "EPOCH": "2025-12-24T06:00:02.000160", "MEAN_MOTION": 15.75236032, "ECCENTRICITY": 0.00016969, "INCLINATION": 42.9999, "RA_OF_ASC_NODE": 111.7066, "ARG_OF_PERICENTER": 276.1295, "MEAN_ANOMALY": 108.5341, "EPHEMERIS_TYPE": 0, "CLASSIFICATION_TYPE": "U", "NORAD_CAT_ID": 67040, "ELEMENT_SET_NO": 999, "REV_AT_EPOCH": 196, "BSTAR": -0.014036708, "MEAN_MOTION_DOT": -0.01892985, "MEAN_MOTION_DDOT": 0}, "tle": {"line1": "1 67040U 25294L   25358.25002315 -.01892985  00000+0 -14037-1 0  9999", "line2": "2 67040  42.9999 111.7066 0001696 276.1295 108.5341 15.75236032  1969"}}, "geometry": {"type": "Point", "coordinates": [-179.37260594850628, 41.49407234577154]}}, {"type": "Feature", "properties": {"norad_id": 67041, "name": "STARLINK-35765", "group": "last-30-days", "lat": 42.24215455813413, "lon": -174.0125850049897, "alt_km": 343.83481849109194, "timestamp": "2025-12-24T16:52:40.181880+00:00", "meta": {"OBJECT_NAME": "STARLINK-35765", "OBJECT_ID": "2025-294M", "EPOCH": "2025-12-24T06:00:02.000160", "MEAN_MOTION": 15.75232418, "ECCENTRICITY": 0.00015556, "INCLINATION": 42.9998, "RA_OF_ASC_NODE": 111.6961, "ARG_OF_PERICENTER": 274.4504, "MEAN_ANOMALY": 114.2898, "EPHEMERIS_TYPE": 0, "CLASSIFICATION_TYPE": "U", "NORAD_CAT_ID": 67041, "ELEMENT_SET_NO": 999, "REV_AT_EPOCH": 196, "BSTAR": -0.014090406, "MEAN_MOTION_DOT": -0.01898859, "MEAN_MOTION_DDOT": 0}, "tle": {"line1": "1 67041U 25294M   25358.25002315 -.01898859  00000+0 -14090-1 0  9995", "line2": "2 67041  42.9998 111.6961 0001555 274.4504 114.2898 15.75232418  1965"}}, "geometry": {"type": "Point", "coordinates": [-174.0125850049897, 42.24215455813413]}}, {"type": "Feature", "properties": {"norad_id": 67042, "name": "STARLINK-35773", "group": "last-30-days", "lat": 42.53283635288794, "lon": -171.15710567405924, "alt_km": 343.77804977001415, "timestamp": "2025-12-24T16:52:40.181890+00:00", "meta": {"OBJECT_NAME": "STARLINK-35773", "OBJECT_ID": "2025-294N", "EPOCH": "2025-12-24T06:00:02.000160", "MEAN_MOTION": 15.7522132, "ECCENTRICITY": 0.00014712, "INCLINATION": 42.9998, "RA_OF_ASC_NODE": 111.6907, "ARG_OF_PERICENTER": 274.9343, "MEAN_ANOMALY": 115.9552, "EPHEMERIS_TYPE": 0, "CLASSIFICATION_TYPE": "U", "NORAD_CAT_ID": 67042, "ELEMENT_SET_NO": 999, "REV_AT_EPOCH": 215, "BSTAR": -0.014100735, "MEAN_MOTION_DOT": -0.01899178, "MEAN_MOTION_DDOT": 0}, "tle": {"line1": "1 67042U 25294N   25358.25002315 -.01899178  00000+0 -14101-1 0  9994", "line2": "2 67042  42.9998 111.6907 0001471 274.9343 115.9552 15.75221320  2156"}}, "geometry": {"type": "Point", "coordinates": [-171.15710567405924, 42.53283635288794]}}, {"type": "Feature", "properties": {"norad_id": 67043, "name": "STARLINK-35901", "group": "last-30-days", "lat": 42.75079800800223, "lon": -168.29476405288145, "alt_km": 343.87297083810245, "timestamp": "2025-12-24T16:52:40.181902+00:00", "meta": {"OBJECT_NAME": "STARLINK-35901", "OBJECT_ID": "2025-294P", "EPOCH": "2025-12-24T06:00:02.000160", "MEAN_MOTION": 15.75204222, "ECCENTRICITY": 0.00016189, "INCLINATION": 42.9999, "RA_OF_ASC_NODE": 111.6854, "ARG_OF_PERICENTER": 276.2505, "MEAN_ANOMALY": 116.7776, "EPHEMERIS_TYPE": 0, "CLASSIFICATION_TYPE": "U", "NORAD_CAT_ID": 67043, "ELEMENT_SET_NO": 999, "REV_AT_EPOCH": 215, "BSTAR": -0.01404948, "MEAN_MOTION_DOT": -0.01892093, "MEAN_MOTION_DDOT": 0}, "tle": {"line1": "1 67043U 25294P   25358.25002315 -.01892093  00000+0 -14049-1 0  9995", "line2": "2 67043  42.9999 111.6854 0001618 276.2505 116.7776 15.75204222  2156"}}, "geometry": {"type": "Point", "coordinates": [-168.29476405288145, 42.75079800800223]}}, {"type": "Feature", "properties": {"norad_id": 67044, "name": "STARLINK-35884", "group": "last-30-days", "lat": 42.89476709194489, "lon": -165.47587382721883, "alt_km": 343.84166989120604, "timestamp": "2025-12-24T16:52:40.181914+00:00", "meta": {"OBJECT_NAME": "STARLINK-35884", "OBJECT_ID": "2025-294Q", "EPOCH": "2025-12-24T06:00:02.000160", "MEAN_MOTION": 15.7520453, "ECCENTRICITY": 0.00015444, "INCLINATION": 43.0003, "RA_OF_ASC_NODE": 111.6802, "ARG_OF_PERICENTER": 276.0457, "MEAN_ANOMALY": 119.0642, "EPHEMERIS_TYPE": 0, "CLASSIFICATION_TYPE": "U", "NORAD_CAT_ID": 67044, "ELEMENT_SET_NO": 999, "REV_AT_EPOCH": 215, "BSTAR": -0.014120506, "MEAN_MOTION_DOT": -0.01900324, "MEAN_MOTION_DDOT": 0}, "tle": {"line1": "1 67044U 25294Q   25358.25002315 -.01900324  00000+0 -14121-1 0  9994", "line2": "2 67044  43.0003 111.6802 0001544 276.0457 119.0642 15.75204530  2150"}}, "geometry": {"type": "Point", "coordinates": [-165.47587382721883, 42.89476709194489]}}, {"type": "Feature", "properties": {"norad_id": 67045, "name": "STARLINK-35891", "group": "last-30-days", "lat": 42.97271516158272, "lon": -162.28933523103822, "alt_km": 343.9625481495732, "timestamp": "2025-12-24T16:52:40.181925+00:00", "meta": {"OBJECT_NAME": "STARLINK-35891", "OBJECT_ID": "2025-294R", "EPOCH": "2025-12-24T06:00:02.000160", "MEAN_MOTION": 15.75179379, "ECCENTRICITY": 0.00016402, "INCLINATION": 43, "RA_OF_ASC_NODE": 111.674, "ARG_OF_PERICENTER": 276.5861, "MEAN_ANOMALY": 120.8968, "EPHEMERIS_TYPE": 0, "CLASSIFICATION_TYPE": "U", "NORAD_CAT_ID": 67045, "ELEMENT_SET_NO": 999, "REV_AT_EPOCH": 207, "BSTAR": -0.014100067, "MEAN_MOTION_DOT": -0.01896202, "MEAN_MOTION_DDOT": 0}, "tle": {"line1": "1 67045U 25294R   25358.25002315 -.01896202  00000+0 -14100-1 0  9991", "line2": "2 67045  43.0000 111.6740 0001640 276.5861 120.8968 15.75179379  2074"}}, "geometry": {"type": "Point", "coordinates": [-162.28933523103822, 42.97271516158272]}}, {"type": "Feature", "properties": {"norad_id": 67046, "name": "STARLINK-35721", "group": "last-30-days", "lat": 42.9657391530936, "lon": -159.3094045285696, "alt_km": 343.9928677144135, "timestamp": "2025-12-24T16:52:40.181934+00:00", "meta": {"OBJECT_NAME": "STARLINK-35721", "OBJECT_ID": "2025-294S", "EPOCH": "2025-12-24T06:00:02.000160", "MEAN_MOTION": 15.75167214, "ECCENTRICITY": 0.00016003, "INCLINATION": 43.0002, "RA_OF_ASC_NODE": 111.6687, "ARG_OF_PERICENTER": 275.4039, "MEAN_ANOMALY": 124.2836, "EPHEMERIS_TYPE": 0, "CLASSIFICATION_TYPE": "U", "NORAD_CAT_ID": 67046, "ELEMENT_SET_NO": 999, "REV_AT_EPOCH": 215, "BSTAR": -0.014125544, "MEAN_MOTION_DOT": -0.01898244, "MEAN_MOTION_DDOT": 0}, "tle": {"line1": "1 67046U 25294S   25358.25002315 -.01898244  00000+0 -14126-1 0  9998", "line2": "2 67046  43.0002 111.6687 0001600 275.4039 124.2836 15.75167214  2154"}}, "geometry": {"type": "Point", "coordinates": [-159.3094045285696, 42.9657391530936]}}, {"type": "Feature", "properties": {"norad_id": 67047, "name": "STARLINK-35779", "group": "last-30-days", "lat": 42.87173554588277, "lon": -156.123335275824, "alt_km": 343.969385213044, "timestamp": "2025-12-24T16:52:40.181945+00:00", "meta": {"OBJECT_NAME": "STARLINK-35779", "OBJECT_ID": "2025-294T", "EPOCH": "2025-12-24T06:00:02.000160", "MEAN_MOTION": 15.75139396, "ECCENTRICITY": 0.0001438, "INCLINATION": 42.9998, "RA_OF_ASC_NODE": 111.6628, "ARG_OF_PERICENTER": 277.86, "MEAN_ANOMALY": 124.2079, "EPHEMERIS_TYPE": 0, "CLASSIFICATION_TYPE": "U", "NORAD_CAT_ID": 67047, "ELEMENT_SET_NO": 999, "REV_AT_EPOCH": 196, "BSTAR": -0.014133659, "MEAN_MOTION_DOT": -0.01897015, "MEAN_MOTION_DDOT": 0}, "tle": {"line1": "1 67047U 25294T   25358.25002315 -.01897015  00000+0 -14134-1 0  9993", "line2": "2 67047  42.9998 111.6628 0001438 277.8600 124.2079 15.75139396  1968"}}, "geometry": {"type": "Point", "coordinates": [-156.123335275824, 42.87173554588277]}}, {"type": "Feature", "properties": {"norad_id": 67048, "name": "STARLINK-35905", "group": "last-30-days", "lat": 42.72576854584279, "lon": -153.46581115720602, "alt_km": 343.9743736076816, "timestamp": "2025-12-24T16:52:40.181954+00:00", "meta": {"OBJECT_NAME": "STARLINK-35905", "OBJECT_ID": "2025-294U", "EPOCH": "2025-12-24T06:00:02.000160", "MEAN_MOTION": 15.75144824, "ECCENTRICITY": 0.00013969, "INCLINATION": 43.0002, "RA_OF_ASC_NODE": 111.6579, "ARG_OF_PERICENTER": 273.3527, "MEAN_ANOMALY": 130.6691, "EPHEMERIS_TYPE": 0, "CLASSIFICATION_TYPE": "U", "NORAD_CAT_ID": 67048, "ELEMENT_SET_NO": 999, "REV_AT_EPOCH": 207, "BSTAR": -0.014165912, "MEAN_MOTION_DOT": -0.01901118, "MEAN_MOTION_DDOT": 0}, "tle": {"line1": "1 67048U 25294U   25358.25002315 -.01901118  00000+0 -14166-1 0  9999", "line2": "2 67048  43.0002 111.6579 0001396 273.3527 130.6691 15.75144824  2070"}}, "geometry": {"type": "Point", "coordinates": [-153.46581115720602, 42.72576854584279]}}, {"type": "Feature", "properties": {"norad_id": 67049, "name": "STARLINK-35877", "group": "last-30-days", "lat": 42.479657221564715, "lon": -150.40495778929701, "alt_km": 344.1482462377353, "timestamp": "2025-12-24T16:52:40.181965+00:00", "meta": {"OBJECT_NAME": "STARLINK-35877", "OBJECT_ID": "2025-294V", "EPOCH": "2025-12-24T06:00:02.000160", "MEAN_MOTION": 15.75116332, "ECCENTRICITY": 0.00015222, "INCLINATION": 43.0004, "RA_OF_ASC_NODE": 111.6523, "ARG_OF_PERICENTER": 275.7732, "MEAN_ANOMALY": 130.5528, "EPHEMERIS_TYPE": 0, "CLASSIFICATION_TYPE": "U", "NORAD_CAT_ID": 67049, "ELEMENT_SET_NO": 999, "REV_AT_EPOCH": 215, "BSTAR": -0.014096707, "MEAN_MOTION_DOT": -0.01891122, "MEAN_MOTION_DDOT": 0}, "tle": {"line1": "1 67049U 25294V   25358.25002315 -.01891122  00000+0 -14097-1 0  9996", "line2": "2 67049  43.0004 111.6523 0001522 275.7732 130.5528 15.75116332  2157"}}, "geometry": {"type": "Point", "coordinates": [-150.40495778929701, 42.479657221564715]}}]}